name,category,address,latitude,longitude
Bank Sampah Melati Bersih,Bank Sampah,"Jl. Mawar No. 12, Tebet, Jakarta Selatan",-6.2445,106.852
Naked Inc. Bulk Store,Bulk Store / Zero Waste,"Jl. Kemang Raya No. 3A, Kemang, Jakarta Selatan",-6.2615,106.814
Setali Indonesia,Thrift Store / Pakaian Bekas,"Jl. Radio Dalam Raya No. 14, Gandaria Utara, Jakarta Selatan",-6.2558,106.788
Kebun Kumara,Komunitas / Edukasi,"Jl. Cilandak KKO No. 1, Cilandak Timur, Jakarta Selatan",-6.3019,106.808
Bank Sampah Gesit,Bank Sampah,"Jl. Menteng Wadas Timur, Pasar Manggis, Jakarta Selatan",-6.212,106.845
Pasar Santa,Thrift Store / Pakaian Bekas,"Jl. Cisanggiri II No.2, RT.5/RW.4, Petogogan, Kebayoran Baru, Jakarta Selatan",-6.245,106.802
Saruga - Package Free Shopping,Bulk Store / Zero Waste,"Jl. Taman Bintaro No.1, Bintaro, Pesanggrahan, Jakarta Selatan",-6.278,106.75
Bank Sampah Hijau Selaras,Bank Sampah,"Jl. Dago Asri I No.24, Dago, Kecamatan Coblong, Kota Bandung, Jawa Barat",-6.874,107.614
Cimori,Thrift Store / Pakaian Bekas,"Jl. Sultan Tirtayasa No.24, Citarum, Kec. Bandung Wetan, Kota Bandung, Jawa Barat",-6.908,107.619
Warung Unpack,Bulk Store / Zero Waste,"Jl. Purnawarman No.13-15, Babakan Ciamis, Kec. Sumur Bandung, Kota Bandung, Jawa Barat",-6.909,107.61
Bank Sampah Induk Surabaya,Bank Sampah,"Jl. Ngagel Timur No.26, Ngagel, Kec. Wonokromo, Kota Surabaya, Jawa Timur",-7.291,112.752
Kolektif Store,Bulk Store / Zero Waste,"Jl. Raya Jemursari No.76, Jemur Wonosari, Kec. Wonocolo, Kota Surabaya, Jawa Timur",-7.321,112.74
Kepala Toko,Thrift Store / Pakaian Bekas,"Jl. Untung Suropati No.83, DR. Soetomo, Kec. Tegalsari, Kota Surabaya, Jawa Timur",-7.28,112.738
Bank Sampah Gemah Ripah,Bank Sampah,"Jl. Bantul No.KM. 6, Nyemengan, Tirtonirmolo, Kec. Kasihan, Kabupaten Bantul, Daerah Istimewa Yogyakarta",-7.842,110.347
Demangan Recycle Market,Thrift Store / Pakaian Bekas,"Jl. Demangan Baru No.1, Demangan, Kec. Gondokusuman, Kota Yogyakarta, Daerah Istimewa Yogyakarta",-7.782,110.392
Growbox,Komunitas / Edukasi,"Jl. Prof. DR. Sardjito, Terban, Kec. Gondokusuman, Kota Yogyakarta, Daerah Istimewa Yogyakarta",-7.773,110.378
Bank Sampah Samtaku Jimbaran,Bank Sampah,"Jl. Pura Batu Pageh, Jimbaran, Kec. Kuta Sel., Kabupaten Badung, Bali",-8.811,115.16
Zero Waste Bali,Bulk Store / Zero Waste,"Jl. Raya Canggu, Kerobokan, Kec. Kuta Utara, Kabupaten Badung, Bali",-8.648,115.142
Bali-Zen,Thrift Store / Pakaian Bekas,"Jl. Raya Basangkasa No.4, Seminyak, Kuta, Kabupaten Badung, Bali",-8.69,115.16
Green School Bali,Komunitas / Edukasi,"Jl. Raya Sibang Kaja, Sibang Kaja, Kec. Abiansemal, Kabupaten Badung, Bali",-8.598,115.22
Bank Sampah Induk Medan,Bank Sampah,"Jl. Bunga Mawar No.46, Padang Bulan Selayang I, Kec. Medan Selayang, Kota Medan, Sumatera Utara",3.55,98.64
Monza (Pasar Pakaian Bekas),Thrift Store / Pakaian Bekas,"Jl. Gatot Subroto, Sei Sikambing D, Kec. Medan Petisah, Kota Medan, Sumatera Utara",3.59,98.65
Bank Sampah Makassar,Bank Sampah,"Jl. Urip Sumoharjo No.KM.4, Karuwisi, Kec. Panakkukang, Kota Makassar, Sulawesi Selatan",-5.14,119.44
Pasar Cakar (Cap Karung),Thrift Store / Pakaian Bekas,"Jl. Cendrawasih, Panambungan, Kec. Mariso, Kota Makassar, Sulawesi Selatan",-5.16,119.41
Gudang Organik,Bulk Store / Zero Waste,"Jl. Boulevard, Masale, Kec. Panakkukang, Kota Makassar, Sulawesi Selatan",-5.15,119.45
Bank Sampah Bintang Sejahtera,Bank Sampah,"Jl. Raya Bogor KM.28, Pekayon, Kec. Ps. Rebo, Kota Jakarta Timur, DKI Jakarta",-6.31,106.86
Toko Organis,Bulk Store / Zero Waste,"Jl. Tebet Barat Dalam Raya No.10, Tebet Barat, Kec. Tebet, Kota Jakarta Selatan",-6.23,106.84
Pasar Senen Blok III,Thrift Store / Pakaian Bekas,"Jl. St. Senen, Senen, Kec. Senen, Kota Jakarta Pusat, DKI Jakarta",-6.17,106.84
Bank Sampah Maju Bersama,Bank Sampah,"Jl. Cihampelas No.160, Cipaganti, Kecamatan Coblong, Kota Bandung, Jawa Barat",-6.89,107.6
Pasar Gede Bage,Thrift Store / Pakaian Bekas,"Jl. Soekarno Hatta, Cisaranten Kidul, Kec. Gedebage, Kota Bandung, Jawa Barat",-6.94,107.69
Pusat Gorontalo Nir-Sampah,Bulk Store / Zero Waste,"Gg. Imam Bonjol Lestari No. 109, Gorontalo",0.582766,123.097147
Bank Sampah Denpasar Lestari,Bank Sampah,"Jl. Imam Bonjol Lama No. 48, Denpasar",-8.629294,115.207991
Butik Elang Second,Thrift Store / Pakaian Bekas,"Komp. Cut Nyak Dien Lama No. 121, Palembang",-2.970111,104.784685
Pusat Mataram Ramah Lingkungan,Bulk Store / Zero Waste,"Komp. Elang Indah No. 175, Mataram",-8.618551,116.137456
Rumah Sampah Sisingamangaraja Bersama,Bank Sampah,"Jl. Bougenville Lama No. 97, Jambi",-1.614064,103.590375
Bank Sampah Palembang Lestari,Bank Sampah,"Komp. Cendrawasih Permai No. 115, Palembang",-2.950225,104.734057
Bank Sampah Gorontalo Lestari,Bank Sampah,"Perum. Flamboyan Baru No. 177, Gorontalo",0.584979,123.055539
Gerakan Bengkulu Peduli Lingkungan,Komunitas / Edukasi,"Perum. Anggrek Baru No. 55, Bengkulu",-3.749063,102.283008
Toko Kenanga Monza,Thrift Store / Pakaian Bekas,"Komp. Cut Nyak Dien Lestari No. 178, Tangerang",-6.155582,106.612806
Gerakan Mamuju Peduli Lingkungan,Komunitas / Edukasi,"Gg. Kartini Permai No. 114, Mamuju",-2.674546,118.845659
Toko Depok Bekas Berkelas,Thrift Store / Pakaian Bekas,"Jl. Melati Indah No. 50, Depok",-6.356885,106.78107
Toko Cendana Tanpa Kemasan,Bulk Store / Zero Waste,"Komp. Elang Asri No. 7, Ternate",0.806196,127.372426
Galeri Teuku Umar Bekas Berkelas,Thrift Store / Pakaian Bekas,"Perum. Mawar Baru No. 25, Samarinda",-0.530123,117.164177
Galeri Merdeka Monza,Thrift Store / Pakaian Bekas,"Jl. Harimau Lama No. 150, Batam",1.008938,104.060414
Toko Mawar Tanpa Kemasan,Bulk Store / Zero Waste,"Komp. Cendrawasih Raya No. 172, Bengkulu",-3.771523,102.236344
Toko Gagak Curah,Bulk Store / Zero Waste,"Gg. Cendana Lama No. 21, Malang",-7.976254,112.599115
Gerakan Yogyakarta Hijau,Komunitas / Edukasi,"Jl. Harimau Baru No. 52, Yogyakarta",-7.815794,110.403631
Lingkar Gagak Go Green,Komunitas / Edukasi,"Perum. Diponegoro Raya No. 79, Tangerang",-6.15923,106.669352
Sahabat Padang Peduli Lingkungan,Komunitas / Edukasi,"Komp. Teuku Umar Lestari No. 39, Padang",-0.96513,100.342426
Gerakan Padang Lestari,Komunitas / Edukasi,"Komp. Melati Indah No. 129, Padang",-0.908687,100.355942
Toko Mawar Monza,Thrift Store / Pakaian Bekas,"Perum. Flamboyan Asri No. 144, Tanjung Pinang",0.940257,104.484946
Kedai Tanjung Pinang Nir-Sampah,Bulk Store / Zero Waste,"Komp. Melati Lestari No. 162, Tanjung Pinang",0.867419,104.450232
Butik Melati Second,Thrift Store / Pakaian Bekas,"Perum. Sisingamangaraja Lama No. 25, Padang",-0.975432,100.380275
Toko Bandung Cakar,Thrift Store / Pakaian Bekas,"Gg. Flamboyan Lestari No. 148, Bandung",-6.891534,107.632296
Pasar Palembang Cakar,Thrift Store / Pakaian Bekas,"Perum. Thamrin Lama No. 36, Palembang",-2.954127,104.820342
Kedai Surabaya Isi Ulang,Bulk Store / Zero Waste,"Jl. Gatot Subroto Raya No. 171, Surabaya",-7.306325,112.715515
Rumah Sampah Cendana Hijau,Bank Sampah,"Komp. Teuku Umar Lama No. 13, Ambon",-3.636239,128.223952
Bank Sampah Thamrin Cinta Alam,Bank Sampah,"Komp. Kenanga Asri No. 53, Yogyakarta",-7.8308,110.417081
Pusat Daur Ulang Bougenville Mandiri,Bank Sampah,"Komp. Merpati Asri No. 188, Yogyakarta",-7.793797,110.334981
Pasar Banjarmasin Second,Thrift Store / Pakaian Bekas,"Gg. Anggrek Baru No. 161, Banjarmasin",-3.275843,114.586779
Galeri Diponegoro Cakar,Thrift Store / Pakaian Bekas,"Komp. Cendana Baru No. 141, Yogyakarta",-7.809437,110.373051
Rumah Sampah Mawar Bersama,Bank Sampah,"Komp. Diponegoro Raya No. 42, Pangkal Pinang",-2.146144,106.0763
Pusat Daur Ulang Bandung Hijau,Bank Sampah,"Perum. Gagak Asri No. 140, Bandung",-6.888641,107.619128
Gerakan Batam Lestari,Komunitas / Edukasi,"Gg. Melati Raya No. 46, Batam",1.078152,104.054417
Warung Kancil Curah,Bulk Store / Zero Waste,"Perum. Dewi Sartika Asri No. 96, Serang",-6.152247,106.148329
Galeri Bekasi Vintage,Thrift Store / Pakaian Bekas,"Gg. Cendana Lestari No. 70, Bekasi",-6.269539,107.03757
Pasar Bandung Second,Thrift Store / Pakaian Bekas,"Jl. Patimura Indah No. 94, Bandung",-6.953128,107.597495
Lingkar Garuda Peduli Lingkungan,Komunitas / Edukasi,"Komp. Cut Nyak Dien Raya No. 94, Jakarta",-6.250349,106.835508
Lingkar Anggrek Lestari,Komunitas / Edukasi,"Perum. Melati Permai No. 72, Pekanbaru",0.459311,101.479507
Kedai Bengkulu Nir-Sampah,Bulk Store / Zero Waste,"Komp. Teuku Umar Permai No. 128, Bengkulu",-3.833448,102.280878
Gerakan Sudirman Lestari,Komunitas / Edukasi,"Gg. Mawar Lestari No. 8, Tangerang",-6.142182,106.612801
Galeri Tanjung Pinang Bekas Berkelas,Thrift Store / Pakaian Bekas,"Jl. Diponegoro Asri No. 188, Tanjung Pinang",0.893014,104.487092
Butik Sisingamangaraja Bekas Berkelas,Thrift Store / Pakaian Bekas,"Perum. Thamrin Lestari No. 1, Semarang",-6.964615,110.437066
Sahabat Padang Hijau,Komunitas / Edukasi,"Perum. Sisingamangaraja Asri No. 154, Padang",-0.955721,100.3116
Pasar Sofifi Monza,Thrift Store / Pakaian Bekas,"Komp. Imam Bonjol Permai No. 19, Sofifi",0.726163,127.60572
Pusat Daur Ulang Balikpapan Cinta Alam,Bank Sampah,"Jl. Teuku Umar Baru No. 192, Balikpapan",-1.227235,116.828369
Toko Kancil Bekas Berkelas,Thrift Store / Pakaian Bekas,"Perum. Rajawali Asri No. 181, Mataram",-8.575942,116.137438
Bank Sampah Imam Bonjol Sejahtera,Bank Sampah,"Komp. Thamrin Raya No. 31, Depok",-6.387282,106.811318
Butik Semarang Bekas Berkelas,Thrift Store / Pakaian Bekas,"Jl. Kamboja Raya No. 6, Semarang",-6.968736,110.416068
Toko Sofifi Curah,Bulk Store / Zero Waste,"Komp. Kancil Lestari No. 187, Sofifi",0.682968,127.607638
Komunitas Sofifi Lestari,Komunitas / Edukasi,"Perum. Kartini Baru No. 105, Sofifi",0.706457,127.547712
Warung Mataram Tanpa Kemasan,Bulk Store / Zero Waste,"Gg. Bougenville Permai No. 81, Mataram",-8.574573,116.106888
Pusat Teuku Umar Curah,Bulk Store / Zero Waste,"Gg. Cendrawasih Raya No. 160, Mamuju",-2.664604,118.928357
Rumah Sampah Imam Bonjol Lestari,Bank Sampah,"Perum. Dewi Sartika Indah No. 97, Depok",-6.371025,106.750487
Pusat Daur Ulang Ternate Lestari,Bank Sampah,"Jl. Pahlawan Raya No. 141, Ternate",0.74549,127.411856
Kedai Kupang Isi Ulang,Bulk Store / Zero Waste,"Jl. Sudirman Baru No. 20, Kupang",-10.20716,123.621842
Butik Kenanga Monza,Thrift Store / Pakaian Bekas,"Perum. Dewi Sartika Indah No. 92, Malang",-7.986143,112.630621
Bank Sampah Batam Hijau,Bank Sampah,"Komp. Kancil Lestari No. 120, Batam",1.039231,103.980735
Lingkar Jambi Peduli Lingkungan,Komunitas / Edukasi,"Jl. Thamrin Baru No. 192, Jambi",-1.598986,103.589184
Butik Gatot Subroto Monza,Thrift Store / Pakaian Bekas,"Jl. Thamrin Asri No. 89, Samarinda",-0.48226,117.144268
Butik Bengkulu Cakar,Thrift Store / Pakaian Bekas,"Perum. Bougenville Permai No. 22, Bengkulu",-3.770145,102.235427
Kedai Pontianak Nir-Sampah,Bulk Store / Zero Waste,"Komp. Imam Bonjol Raya No. 122, Pontianak",-0.04895,109.36351
Toko Mawar Bekas Berkelas,Thrift Store / Pakaian Bekas,"Perum. Gagak Asri No. 184, Medan",3.608884,98.673509
Toko Yogyakarta Curah,Bulk Store / Zero Waste,"Komp. Flamboyan Raya No. 115, Yogyakarta",-7.827583,110.330371
Lingkar Sofifi Cinta Bumi,Komunitas / Edukasi,"Gg. Teuku Umar Asri No. 68, Sofifi",0.702643,127.599577
Lingkar Denpasar Go Green,Komunitas / Edukasi,"Jl. Teuku Umar Permai No. 127, Denpasar",-8.683498,115.169897
Toko Bekasi Curah,Bulk Store / Zero Waste,"Jl. Cendana Lestari No. 127, Bekasi",-6.20056,107.010275
Rumah Sampah Merdeka Hijau,Bank Sampah,"Komp. Garuda Raya No. 48, Banda Aceh",5.595581,95.36598
Toko Jayapura Isi Ulang,Bulk Store / Zero Waste,"Jl. Cut Nyak Dien Permai No. 85, Jayapura",-2.490484,140.705135
Pasar Jakarta Bekas Berkelas,Thrift Store / Pakaian Bekas,"Perum. Elang Indah No. 185, Jakarta",-6.204954,106.849658
Pusat Dewi Sartika Isi Ulang,Bulk Store / Zero Waste,"Gg. Harimau Lama No. 69, Depok",-6.396317,106.784929
Sahabat Pontianak Cinta Bumi,Komunitas / Edukasi,"Gg. Harimau Indah No. 159, Pontianak",-0.040031,109.356193
Galeri Bougenville Monza,Thrift Store / Pakaian Bekas,"Komp. Pahlawan Lama No. 179, Jambi",-1.646056,103.624477
Pusat Kancil Isi Ulang,Bulk Store / Zero Waste,"Gg. Cendrawasih Lama No. 100, Mamuju",-2.723371,118.869139
Pasar Semarang Cakar,Thrift Store / Pakaian Bekas,"Gg. Mawar Indah No. 25, Semarang",-6.990855,110.442741
Butik Pekanbaru Monza,Thrift Store / Pakaian Bekas,"Jl. Bougenville Baru No. 89, Pekanbaru",0.500788,101.454975
Kedai Bougenville Tanpa Kemasan,Bulk Store / Zero Waste,"Gg. Kartini Indah No. 74, Makassar",-5.148638,119.428298
Rumah Sampah Batam Mandiri,Bank Sampah,"Gg. Kamboja Raya No. 184, Batam",1.064437,104.031303
Gerakan Surabaya Hijau,Komunitas / Edukasi,"Jl. Imam Bonjol Raya No. 116, Surabaya",-7.225844,112.793276
Galeri Garuda Monza,Thrift Store / Pakaian Bekas,"Jl. Kamboja Permai No. 110, Gorontalo",0.561983,123.062601
Toko Garuda Ramah Lingkungan,Bulk Store / Zero Waste,"Gg. Sudirman Lama No. 149, Malang",-8.013316,112.636737
Warung Makassar Isi Ulang,Bulk Store / Zero Waste,"Jl. Patimura Raya No. 1, Makassar",-5.103202,119.45418
Pusat Daur Ulang Anggrek Cinta Alam,Bank Sampah,"Perum. Kancil Raya No. 6, Ternate",0.823993,127.403144
Komunitas Cendrawasih Peduli Lingkungan,Komunitas / Edukasi,"Perum. Elang Raya No. 163, Kendari",-3.974966,122.515902
Pusat Kendari Tanpa Kemasan,Bulk Store / Zero Waste,"Komp. Patimura Permai No. 23, Kendari",-4.033588,122.561353
Pusat Daur Ulang Elang Lestari,Bank Sampah,"Jl. Kamboja Lama No. 100, Depok",-6.356352,106.751472
Lingkar Dewi Sartika Go Green,Komunitas / Edukasi,"Komp. Flamboyan Lestari No. 195, Pekanbaru",0.487509,101.470205
Lingkar Manado Hijau,Komunitas / Edukasi,"Perum. Sisingamangaraja Indah No. 138, Manado",1.519358,124.83998
Galeri Gagak Monza,Thrift Store / Pakaian Bekas,"Jl. Cendrawasih Baru No. 36, Depok",-6.446594,106.816601
Butik Mawar Cakar,Thrift Store / Pakaian Bekas,"Gg. Kancil Raya No. 194, Bengkulu",-3.758603,102.256631
Lingkar Harimau Peduli Lingkungan,Komunitas / Edukasi,"Jl. Imam Bonjol Permai No. 51, Bandung",-6.870825,107.641748
Lingkar Merdeka Hijau,Komunitas / Edukasi,"Jl. Flamboyan Raya No. 45, Balikpapan",-1.283297,116.877156
Pasar Sofifi Cakar,Thrift Store / Pakaian Bekas,"Perum. Anggrek Permai No. 109, Sofifi",0.719555,127.566056
Gerakan Rajawali Lestari,Komunitas / Edukasi,"Komp. Anggrek Raya No. 137, Denpasar",-8.718057,115.212423
Toko Sofifi Monza,Thrift Store / Pakaian Bekas,"Jl. Bougenville Baru No. 148, Sofifi",0.76391,127.565272
Galeri Imam Bonjol Bekas Berkelas,Thrift Store / Pakaian Bekas,"Jl. Merdeka Lama No. 181, Jambi",-1.596198,103.623429
Pusat Daur Ulang Flamboyan Berkah,Bank Sampah,"Jl. Sisingamangaraja Permai No. 182, Manokwari",-0.909025,134.060369
Gerakan Sisingamangaraja Hijau,Komunitas / Edukasi,"Komp. Pahlawan Lestari No. 36, Denpasar",-8.623102,115.244282
Gerakan Pahlawan Cinta Bumi,Komunitas / Edukasi,"Gg. Kancil Indah No. 178, Tangerang",-6.166163,106.599485
Galeri Tangerang Vintage,Thrift Store / Pakaian Bekas,"Perum. Garuda Raya No. 66, Tangerang",-6.194181,106.641436
Lingkar Garuda Cinta Bumi,Komunitas / Edukasi,"Gg. Gagak Permai No. 189, Jayapura",-2.485144,140.752746
Toko Mataram Monza,Thrift Store / Pakaian Bekas,"Perum. Garuda Raya No. 143, Mataram",-8.55147,116.165415
Galeri Cut Nyak Dien Cakar,Thrift Store / Pakaian Bekas,"Jl. Imam Bonjol Raya No. 39, Semarang",-6.921542,110.431985
Pasar Tangerang Vintage,Thrift Store / Pakaian Bekas,"Jl. Cendana Permai No. 39, Tangerang",-6.138847,106.678501
Toko Elang Curah,Bulk Store / Zero Waste,"Komp. Melati Permai No. 34, Palu",-0.882107,119.890504
Lingkar Tangerang Peduli Lingkungan,Komunitas / Edukasi,"Jl. Dewi Sartika Raya No. 126, Tangerang",-6.19753,106.614919
Pusat Daur Ulang Thamrin Berkah,Bank Sampah,"Gg. Kancil Lama No. 121, Banjarmasin",-3.286915,114.58238
Toko Mamuju Bekas Berkelas,Thrift Store / Pakaian Bekas,"Gg. Cut Nyak Dien Lama No. 62, Mamuju",-2.661591,118.846792
Pasar Cendrawasih Monza,Thrift Store / Pakaian Bekas,"Komp. Rajawali Raya No. 150, Manado",1.491461,124.88101
Pusat Pahlawan Tanpa Kemasan,Bulk Store / Zero Waste,"Perum. Bougenville Raya No. 27, Jakarta",-6.233429,106.857274
Sahabat Garuda Peduli Lingkungan,Komunitas / Edukasi,"Jl. Patimura Asri No. 156, Manado",1.524019,124.854589
Komunitas Patimura Go Green,Komunitas / Edukasi,"Gg. Rajawali Permai No. 198, Bekasi",-6.191813,106.959142
Rumah Sampah Kenanga Sejahtera,Bank Sampah,"Perum. Cendrawasih Permai No. 40, Surabaya",-7.235592,112.786036
Bank Sampah Ternate Sejahtera,Bank Sampah,"Jl. Diponegoro Indah No. 121, Ternate",0.809246,127.348553
Pasar Bougenville Bekas Berkelas,Thrift Store / Pakaian Bekas,"Komp. Sudirman Lestari No. 10, Balikpapan",-1.289287,116.808722
Butik Tangerang Second,Thrift Store / Pakaian Bekas,"Gg. Sudirman Indah No. 89, Tangerang",-6.177934,106.659493
Kedai Denpasar Curah,Bulk Store / Zero Waste,"Gg. Sisingamangaraja Lama No. 163, Denpasar",-8.637017,115.176087
Lingkar Bougenville Hijau,Komunitas / Edukasi,"Komp. Gatot Subroto Baru No. 134, Bandar Lampung",-5.404091,105.224894
Sahabat Cendrawasih Lestari,Komunitas / Edukasi,"Jl. Cendrawasih Raya No. 154, Yogyakarta",-7.811331,110.336098
Pusat Patimura Isi Ulang,Bulk Store / Zero Waste,"Gg. Anggrek Permai No. 4, Bengkulu",-3.825719,102.243592
Sahabat Depok Lestari,Komunitas / Edukasi,"Komp. Kenanga Asri No. 7, Depok",-6.38293,106.756095
Pasar Bandar Lampung Cakar,Thrift Store / Pakaian Bekas,"Komp. Cendana Indah No. 171, Bandar Lampung",-5.480768,105.275244
Pasar Imam Bonjol Bekas Berkelas,Thrift Store / Pakaian Bekas,"Gg. Melati Permai No. 168, Malang",-7.987013,112.674974
Gerakan Kartini Hijau,Komunitas / Edukasi,"Perum. Kancil Indah No. 93, Gorontalo",0.51856,123.10166
Pasar Serang Second,Thrift Store / Pakaian Bekas,"Komp. Thamrin Lama No. 167, Serang",-6.119215,106.192806
Toko Thamrin Tanpa Kemasan,Bulk Store / Zero Waste,"Komp. Merpati Lestari No. 156, Manado",1.510289,124.808524
Bank Sampah Medan Sejahtera,Bank Sampah,"Komp. Diponegoro Raya No. 23, Medan",3.628775,98.707967
Toko Anggrek Isi Ulang,Bulk Store / Zero Waste,"Perum. Kenanga Lestari No. 73, Tanjung Pinang",0.90961,104.452926
Komunitas Pahlawan Go Green,Komunitas / Edukasi,"Jl. Elang Lama No. 118, Depok",-6.362336,106.781449
Lingkar Thamrin Go Green,Komunitas / Edukasi,"Perum. Merpati Asri No. 117, Jakarta",-6.188048,106.796238
Rumah Sampah Patimura Bersama,Bank Sampah,"Perum. Cendrawasih Lestari No. 89, Pontianak",-0.029943,109.308377
Pusat Daur Ulang Medan Sejahtera,Bank Sampah,"Jl. Anggrek Permai No. 59, Medan",3.565347,98.64826
Komunitas Imam Bonjol Go Green,Komunitas / Edukasi,"Jl. Garuda Lama No. 75, Jayapura",-2.562732,140.70069
Warung Ternate Tanpa Kemasan,Bulk Store / Zero Waste,"Komp. Flamboyan Permai No. 134, Ternate",0.805573,127.408693
Toko Jambi Nir-Sampah,Bulk Store / Zero Waste,"Komp. Garuda Lestari No. 153, Jambi",-1.62502,103.597524
Sahabat Gorontalo Lestari,Komunitas / Edukasi,"Jl. Gagak Lestari No. 55, Gorontalo",0.581373,123.025117
Butik Manado Cakar,Thrift Store / Pakaian Bekas,"Komp. Gatot Subroto Baru No. 31, Manado",1.472088,124.824414
Toko Cut Nyak Dien Nir-Sampah,Bulk Store / Zero Waste,"Perum. Kamboja Lama No. 39, Padang",-0.970963,100.346447
Toko Denpasar Second,Thrift Store / Pakaian Bekas,"Gg. Cendana Lama No. 121, Denpasar",-8.685971,115.224538
Lingkar Medan Cinta Bumi,Komunitas / Edukasi,"Perum. Melati Permai No. 164, Medan",3.586634,98.653873
Lingkar Teuku Umar Peduli Lingkungan,Komunitas / Edukasi,"Komp. Cut Nyak Dien Lama No. 167, Palu",-0.9416,119.84393
Pusat Banda Aceh Ramah Lingkungan,Bulk Store / Zero Waste,"Gg. Patimura Baru No. 31, Banda Aceh",5.600842,95.302295
Butik Merdeka Cakar,Thrift Store / Pakaian Bekas,"Gg. Anggrek Indah No. 79, Kupang",-10.12794,123.599693
Pusat Manado Curah,Bulk Store / Zero Waste,"Jl. Merdeka Asri No. 92, Manado",1.505899,124.836256
Toko Jakarta Bekas Berkelas,Thrift Store / Pakaian Bekas,"Jl. Cendrawasih Baru No. 81, Jakarta",-6.214951,106.836244
Gerakan Thamrin Peduli Lingkungan,Komunitas / Edukasi,"Gg. Sudirman Indah No. 34, Mataram",-8.556074,116.150615
Galeri Elang Second,Thrift Store / Pakaian Bekas,"Jl. Merpati Raya No. 167, Bandung",-6.937348,107.643914
Pusat Daur Ulang Rajawali Cinta Alam,Bank Sampah,"Perum. Dewi Sartika Raya No. 14, Bandar Lampung",-5.479957,105.221901
Butik Jayapura Bekas Berkelas,Thrift Store / Pakaian Bekas,"Jl. Imam Bonjol Raya No. 137, Jayapura",-2.525267,140.714327
Warung Bengkulu Ramah Lingkungan,Bulk Store / Zero Waste,"Gg. Harimau Lama No. 179, Bengkulu",-3.788647,102.211997
Galeri Anggrek Cakar,Thrift Store / Pakaian Bekas,"Perum. Dewi Sartika Permai No. 186, Yogyakarta",-7.841209,110.345962
Pasar Gagak Bekas Berkelas,Thrift Store / Pakaian Bekas,"Perum. Cendana Permai No. 173, Banjarmasin",-3.302029,114.550064
Rumah Sampah Sisingamangaraja Lestari,Bank Sampah,"Komp. Kartini Permai No. 80, Bandar Lampung",-5.458203,105.27752
Galeri Semarang Cakar,Thrift Store / Pakaian Bekas,"Komp. Pahlawan Lama No. 102, Semarang",-6.977969,110.463297
Galeri Gatot Subroto Cakar,Thrift Store / Pakaian Bekas,"Gg. Kancil Baru No. 58, Pontianak",0.018838,109.361785
Pasar Gorontalo Second,Thrift Store / Pakaian Bekas,"Gg. Kancil Baru No. 94, Gorontalo",0.49966,123.071139
Warung Samarinda Tanpa Kemasan,Bulk Store / Zero Waste,"Jl. Garuda Lama No. 1, Samarinda",-0.465089,117.126909
Toko Sisingamangaraja Monza,Thrift Store / Pakaian Bekas,"Gg. Sudirman Asri No. 181, Sofifi",0.771292,127.589195
Komunitas Sudirman Go Green,Komunitas / Edukasi,"Perum. Patimura Indah No. 25, Manokwari",-0.915219,134.074411
Butik Padang Bekas Berkelas,Thrift Store / Pakaian Bekas,"Komp. Kenanga Asri No. 143, Padang",-0.993804,100.339835
Pasar Rajawali Second,Thrift Store / Pakaian Bekas,"Gg. Anggrek Lama No. 70, Surabaya",-7.223787,112.742895
Toko Pekanbaru Monza,Thrift Store / Pakaian Bekas,"Perum. Sisingamangaraja Raya No. 50, Pekanbaru",0.474558,101.45722
Warung Batam Curah,Bulk Store / Zero Waste,"Gg. Kamboja Asri No. 162, Batam",0.999302,104.04227
Pasar Imam Bonjol Cakar,Thrift Store / Pakaian Bekas,"Komp. Gatot Subroto Indah No. 185, Serang",-6.153472,106.153862
Komunitas Diponegoro Hijau,Komunitas / Edukasi,"Komp. Harimau Asri No. 194, Manado",1.468816,124.891425
Bank Sampah Medan Cinta Alam,Bank Sampah,"Jl. Mawar Raya No. 169, Medan",3.639877,98.662005
Pusat Gorontalo Tanpa Kemasan,Bulk Store / Zero Waste,"Jl. Merpati Lama No. 99, Gorontalo",0.537821,123.06239
Pusat Kenanga Nir-Sampah,Bulk Store / Zero Waste,"Gg. Kartini Indah No. 124, Depok",-6.401004,106.830379
Komunitas Bandar Lampung Cinta Bumi,Komunitas / Edukasi,"Gg. Mawar Lama No. 70, Bandar Lampung",-5.499381,105.296931
Gerakan Batam Cinta Bumi,Komunitas / Edukasi,"Komp. Sudirman Lama No. 183, Batam",1.085204,104.022908
Pasar Palembang Bekas Berkelas,Thrift Store / Pakaian Bekas,"Perum. Patimura Asri No. 18, Palembang",-2.939175,104.74355
Kedai Kamboja Isi Ulang,Bulk Store / Zero Waste,"Gg. Flamboyan Asri No. 144, Palembang",-2.999344,104.805211
Pasar Kancil Second,Thrift Store / Pakaian Bekas,"Perum. Kartini Raya No. 2, Kupang",-10.139106,123.540093
Kedai Kancil Ramah Lingkungan,Bulk Store / Zero Waste,"Komp. Kenanga Asri No. 103, Balikpapan",-1.217025,116.83645
Butik Merpati Cakar,Thrift Store / Pakaian Bekas,"Jl. Garuda Asri No. 89, Samarinda",-0.461078,117.151008
Galeri Pahlawan Second,Thrift Store / Pakaian Bekas,"Komp. Kenanga Indah No. 60, Pontianak",-0.02245,109.36879
Pusat Samarinda Curah,Bulk Store / Zero Waste,"Perum. Patimura Indah No. 131, Samarinda",-0.521837,117.155312
Komunitas Bekasi Peduli Lingkungan,Komunitas / Edukasi,"Gg. Cut Nyak Dien Indah No. 114, Bekasi",-6.263487,106.972969
Pasar Ternate Vintage,Thrift Store / Pakaian Bekas,"Perum. Merpati Indah No. 4, Ternate",0.755736,127.361925
Warung Gagak Curah,Bulk Store / Zero Waste,"Gg. Bougenville Lama No. 14, Semarang",-6.949457,110.462169
Warung Mawar Isi Ulang,Bulk Store / Zero Waste,"Perum. Cendana Lestari No. 14, Sofifi",0.760594,127.546735
Pasar Dewi Sartika Vintage,Thrift Store / Pakaian Bekas,"Perum. Harimau Lestari No. 83, Mamuju",-2.702416,118.894357
Sahabat Diponegoro Lestari,Komunitas / Edukasi,"Komp. Dewi Sartika Indah No. 130, Ternate",0.767296,127.335537
Warung Dewi Sartika Nir-Sampah,Bulk Store / Zero Waste,"Perum. Imam Bonjol Asri No. 102, Kendari",-3.978359,122.531477
Bank Sampah Medan Bersama,Bank Sampah,"Perum. Gagak Permai No. 104, Medan",3.570231,98.6338
Toko Merpati Curah,Bulk Store / Zero Waste,"Komp. Merpati Baru No. 10, Sofifi",0.71875,127.535988
Sahabat Gagak Go Green,Komunitas / Edukasi,"Komp. Teuku Umar Baru No. 122, Kupang",-10.210971,123.539334
Toko Merdeka Curah,Bulk Store / Zero Waste,"Perum. Harimau Asri No. 93, Bengkulu",-3.790219,102.210613
Rumah Sampah Sudirman Mandiri,Bank Sampah,"Komp. Bougenville Lestari No. 35, Gorontalo",0.546009,123.091887
Gerakan Ambon Cinta Bumi,Komunitas / Edukasi,"Jl. Sudirman Indah No. 102, Ambon",-3.688831,128.236032
Lingkar Mamuju Hijau,Komunitas / Edukasi,"Komp. Kancil Baru No. 139, Mamuju",-2.721182,118.871951
Toko Bengkulu Curah,Bulk Store / Zero Waste,"Gg. Kartini Permai No. 51, Bengkulu",-3.803528,102.287347
Pusat Pontianak Nir-Sampah,Bulk Store / Zero Waste,"Jl. Bougenville Lama No. 88, Pontianak",0.008561,109.353593
Gerakan Diponegoro Peduli Lingkungan,Komunitas / Edukasi,"Perum. Gatot Subroto Lama No. 28, Medan",3.606426,98.65684
Toko Gatot Subroto Nir-Sampah,Bulk Store / Zero Waste,"Komp. Garuda Raya No. 129, Bekasi",-6.22384,106.960618
Gerakan Sofifi Lestari,Komunitas / Edukasi,"Jl. Kancil Lama No. 21, Sofifi",0.756512,127.617783
Bank Sampah Patimura Sejahtera,Bank Sampah,"Komp. Kartini Lama No. 69, Pekanbaru",0.476811,101.425806
Sahabat Ternate Hijau,Komunitas / Edukasi,"Gg. Kamboja Raya No. 157, Ternate",0.754131,127.359828
Kedai Flamboyan Isi Ulang,Bulk Store / Zero Waste,"Perum. Cendrawasih Indah No. 19, Yogyakarta",-7.84149,110.368039
Pasar Bougenville Monza,Thrift Store / Pakaian Bekas,"Jl. Gatot Subroto Indah No. 54, Banda Aceh",5.601497,95.289222
Bank Sampah Manado Cinta Alam,Bank Sampah,"Gg. Thamrin Permai No. 158, Manado",1.448914,124.807466
Rumah Sampah Ternate Berkah,Bank Sampah,"Gg. Anggrek Lestari No. 137, Ternate",0.755002,127.407498
Butik Banjarmasin Cakar,Thrift Store / Pakaian Bekas,"Jl. Diponegoro Asri No. 20, Banjarmasin",-3.34693,114.566026
Butik Kenanga Bekas Berkelas,Thrift Store / Pakaian Bekas,"Perum. Kartini Lama No. 175, Palu",-0.863922,119.840704
Rumah Sampah Kenanga Bersama,Bank Sampah,"Gg. Dewi Sartika Baru No. 20, Manado",1.503466,124.840394
Komunitas Makassar Hijau,Komunitas / Edukasi,"Jl. Kartini Permai No. 98, Makassar",-5.146688,119.48032
Lingkar Elang Peduli Lingkungan,Komunitas / Edukasi,"Gg. Anggrek Lama No. 70, Mataram",-8.606454,116.124708
Toko Tanjung Pinang Ramah Lingkungan,Bulk Store / Zero Waste,"Perum. Imam Bonjol Raya No. 192, Tanjung Pinang",0.873973,104.479955
Lingkar Kancil Peduli Lingkungan,Komunitas / Edukasi,"Perum. Harimau Asri No. 150, Manokwari",-0.882864,134.041483
Toko Palu Ramah Lingkungan,Bulk Store / Zero Waste,"Gg. Merpati Lama No. 76, Palu",-0.918678,119.883332
Sahabat Semarang Peduli Lingkungan,Komunitas / Edukasi,"Jl. Elang Indah No. 36, Semarang",-6.975967,110.437403
Gerakan Garuda Go Green,Komunitas / Edukasi,"Perum. Imam Bonjol Lestari No. 147, Bekasi",-6.283072,107.01186
Bank Sampah Banjarmasin Mandiri,Bank Sampah,"Komp. Elang Lama No. 159, Banjarmasin",-3.302175,114.593827
Gerakan Samarinda Cinta Bumi,Komunitas / Edukasi,"Komp. Teuku Umar Lama No. 74, Samarinda",-0.473283,117.111969
Warung Patimura Nir-Sampah,Bulk Store / Zero Waste,"Jl. Thamrin Lestari No. 154, Tanjung Pinang",0.89225,104.484973
Komunitas Batam Cinta Bumi,Komunitas / Edukasi,"Gg. Harimau Permai No. 29, Batam",1.066382,104.008127
Bank Sampah Elang Lestari,Bank Sampah,"Jl. Melati Asri No. 93, Manokwari",-0.837594,134.012011
Toko Denpasar Nir-Sampah,Bulk Store / Zero Waste,"Perum. Kancil Permai No. 100, Denpasar",-8.655037,115.183243
Warung Malang Ramah Lingkungan,Bulk Store / Zero Waste,"Perum. Harimau Lestari No. 4, Malang",-7.998825,112.626748
Galeri Samarinda Vintage,Thrift Store / Pakaian Bekas,"Gg. Elang Lestari No. 129, Samarinda",-0.551046,117.190077
Gerakan Bandung Go Green,Komunitas / Edukasi,"Gg. Rajawali Asri No. 189, Bandung",-6.913451,107.668104
Kedai Manado Nir-Sampah,Bulk Store / Zero Waste,"Jl. Kamboja Permai No. 46, Manado",1.486533,124.841638
Kedai Kartini Ramah Lingkungan,Bulk Store / Zero Waste,"Komp. Teuku Umar Asri No. 151, Jayapura",-2.556023,140.734212
Pusat Daur Ulang Patimura Lestari,Bank Sampah,"Perum. Mawar Raya No. 156, Manado",1.489523,124.881595
Gerakan Gatot Subroto Go Green,Komunitas / Edukasi,"Gg. Rajawali Asri No. 8, Jakarta",-6.225552,106.817967
Komunitas Pahlawan Peduli Lingkungan,Komunitas / Edukasi,"Komp. Teuku Umar Baru No. 23, Surabaya",-7.287404,112.739253
Pasar Kartini Monza,Thrift Store / Pakaian Bekas,"Perum. Teuku Umar Baru No. 121, Manado",1.44934,124.831344
Pasar Pekanbaru Cakar,Thrift Store / Pakaian Bekas,"Komp. Diponegoro Lestari No. 16, Pekanbaru",0.488444,101.411721
Toko Kancil Tanpa Kemasan,Bulk Store / Zero Waste,"Perum. Mawar Lama No. 174, Batam",1.051666,104.050189
Warung Patimura Tanpa Kemasan,Bulk Store / Zero Waste,"Jl. Mawar Permai No. 81, Serang",-6.090488,106.186922
Pusat Daur Ulang Serang Sejahtera,Bank Sampah,"Jl. Rajawali Lama No. 122, Serang",-6.142696,106.164527
Pasar Pontianak Second,Thrift Store / Pakaian Bekas,"Perum. Bougenville Raya No. 142, Pontianak",0.006653,109.310536
Bank Sampah Merdeka Hijau,Bank Sampah,"Gg. Imam Bonjol Lama No. 161, Jambi",-1.584442,103.580067
Lingkar Mawar Hijau,Komunitas / Edukasi,"Perum. Patimura Baru No. 4, Serang",-6.105545,106.114785
Toko Palembang Second,Thrift Store / Pakaian Bekas,"Perum. Sisingamangaraja Baru No. 118, Palembang",-2.937698,104.764764
Butik Tanjung Pinang Second,Thrift Store / Pakaian Bekas,"Komp. Anggrek Lestari No. 177, Tanjung Pinang",0.928785,104.493787
Bank Sampah Rajawali Berkah,Bank Sampah,"Komp. Melati Permai No. 123, Bengkulu",-3.828007,102.274336
Gerakan Ambon Lestari,Komunitas / Edukasi,"Jl. Mawar Asri No. 185, Ambon",-3.667907,128.184347
Lingkar Surabaya Lestari,Komunitas / Edukasi,"Jl. Gagak Raya No. 145, Surabaya",-7.224859,112.776673
Kedai Diponegoro Tanpa Kemasan,Bulk Store / Zero Waste,"Gg. Dewi Sartika Baru No. 129, Mamuju",-2.68401,118.914745
Rumah Sampah Cendana Mandiri,Bank Sampah,"Perum. Imam Bonjol Permai No. 21, Makassar",-5.120816,119.460625
Toko Makassar Isi Ulang,Bulk Store / Zero Waste,"Perum. Kenanga Lama No. 5, Makassar",-5.123837,119.391588
Lingkar Melati Go Green,Komunitas / Edukasi,"Gg. Teuku Umar Baru No. 51, Palembang",-3.008481,104.803386
Toko Medan Isi Ulang,Bulk Store / Zero Waste,"Gg. Anggrek Raya No. 86, Medan",3.601163,98.683818
Rumah Sampah Mawar Lestari,Bank Sampah,"Jl. Dewi Sartika Asri No. 98, Kupang",-10.151805,123.630379
Lingkar Dewi Sartika Lestari,Komunitas / Edukasi,"Komp. Diponegoro Indah No. 131, Bengkulu",-3.775968,102.278527
Toko Garuda Bekas Berkelas,Thrift Store / Pakaian Bekas,"Komp. Kartini Lestari No. 69, Jayapura",-2.494762,140.72257
Pasar Mawar Vintage,Thrift Store / Pakaian Bekas,"Perum. Harimau Lama No. 80, Bandung",-6.897174,107.632853
Kedai Semarang Ramah Lingkungan,Bulk Store / Zero Waste,"Jl. Merpati Lama No. 94, Semarang",-6.957166,110.487584
Lingkar Kancil Lestari,Komunitas / Edukasi,"Gg. Teuku Umar Lama No. 20, Palembang",-2.959846,104.741752
Kedai Bandung Nir-Sampah,Bulk Store / Zero Waste,"Perum. Kamboja Raya No. 122, Bandung",-6.961199,107.649083
Butik Semarang Second,Thrift Store / Pakaian Bekas,"Jl. Flamboyan Permai No. 50, Semarang",-7.012154,110.487197
Komunitas Ambon Cinta Bumi,Komunitas / Edukasi,"Gg. Thamrin Permai No. 172, Ambon",-3.678979,128.175209
Komunitas Pontianak Hijau,Komunitas / Edukasi,"Perum. Gagak Lestari No. 194, Pontianak",-0.047775,109.300204
Galeri Depok Bekas Berkelas,Thrift Store / Pakaian Bekas,"Jl. Merpati Permai No. 21, Depok",-6.374877,106.834373
Lingkar Surabaya Hijau,Komunitas / Edukasi,"Perum. Diponegoro Baru No. 143, Surabaya",-7.302555,112.764118
Pusat Daur Ulang Malang Berkah,Bank Sampah,"Komp. Patimura Raya No. 172, Malang",-8.015568,112.650576
Pusat Harimau Tanpa Kemasan,Bulk Store / Zero Waste,"Perum. Melati Permai No. 30, Ambon",-3.662907,128.165607
Pasar Bandar Lampung Second,Thrift Store / Pakaian Bekas,"Jl. Rajawali Asri No. 40, Bandar Lampung",-5.432204,105.263546
Warung Batam Tanpa Kemasan,Bulk Store / Zero Waste,"Jl. Elang Raya No. 127, Batam",1.030121,104.05379
Toko Elang Monza,Thrift Store / Pakaian Bekas,"Gg. Gagak Indah No. 39, Bekasi",-6.257698,107.023584
Pusat Cendana Curah,Bulk Store / Zero Waste,"Perum. Bougenville Lestari No. 112, Bekasi",-6.274065,107.0221
Galeri Pahlawan Vintage,Thrift Store / Pakaian Bekas,"Gg. Rajawali Raya No. 184, Surabaya",-7.271875,112.79148
Rumah Sampah Ternate Bersama,Bank Sampah,"Gg. Melati Baru No. 192, Ternate",0.774941,127.411741
Toko Melati Monza,Thrift Store / Pakaian Bekas,"Jl. Thamrin Asri No. 2, Bengkulu",-3.766527,102.231057
Sahabat Merpati Cinta Bumi,Komunitas / Edukasi,"Gg. Diponegoro Indah No. 182, Kendari",-3.984639,122.551267
Komunitas Bengkulu Lestari,Komunitas / Edukasi,"Gg. Kamboja Indah No. 145, Bengkulu",-3.771046,102.308623
Kedai Pekanbaru Nir-Sampah,Bulk Store / Zero Waste,"Perum. Rajawali Lama No. 19, Pekanbaru",0.519318,101.476474
Pusat Kamboja Ramah Lingkungan,Bulk Store / Zero Waste,"Komp. Merdeka Baru No. 147, Mataram",-8.569827,116.164878
Bank Sampah Palu Cinta Alam,Bank Sampah,"Perum. Sisingamangaraja Lama No. 31, Palu",-0.86721,119.834739
Butik Sudirman Bekas Berkelas,Thrift Store / Pakaian Bekas,"Jl. Kancil Permai No. 28, Tanjung Pinang",0.958055,104.432289
Toko Cendana Ramah Lingkungan,Bulk Store / Zero Waste,"Komp. Melati Indah No. 50, Pekanbaru",0.556628,101.454906
Warung Sisingamangaraja Ramah Lingkungan,Bulk Store / Zero Waste,"Perum. Flamboyan Permai No. 58, Bandar Lampung",-5.453039,105.276592
Lingkar Imam Bonjol Lestari,Komunitas / Edukasi,"Perum. Cendrawasih Lama No. 173, Yogyakarta",-7.801832,110.390624
Toko Surabaya Nir-Sampah,Bulk Store / Zero Waste,"Perum. Elang Indah No. 142, Surabaya",-7.255122,112.70975
Butik Dewi Sartika Monza,Thrift Store / Pakaian Bekas,"Jl. Teuku Umar Permai No. 194, Kendari",-3.945911,122.527984
Butik Makassar Monza,Thrift Store / Pakaian Bekas,"Jl. Gatot Subroto Permai No. 143, Makassar",-5.14714,119.430272
Gerakan Bekasi Peduli Lingkungan,Komunitas / Edukasi,"Komp. Cendana Asri No. 11, Bekasi",-6.191283,106.944291
Rumah Sampah Manado Mandiri,Bank Sampah,"Perum. Teuku Umar Asri No. 68, Manado",1.43789,124.796713
Bank Sampah Yogyakarta Sejahtera,Bank Sampah,"Gg. Merdeka Lama No. 200, Yogyakarta",-7.783787,110.338294
Toko Semarang Second,Thrift Store / Pakaian Bekas,"Jl. Imam Bonjol Indah No. 136, Semarang",-6.93175,110.436359
Toko Elang Bekas Berkelas,Thrift Store / Pakaian Bekas,"Gg. Patimura Lama No. 44, Bandar Lampung",-5.487958,105.220559
Rumah Sampah Thamrin Lestari,Bank Sampah,"Komp. Kancil Baru No. 172, Malang",-7.989709,112.598986
Pasar Patimura Vintage,Thrift Store / Pakaian Bekas,"Gg. Melati Indah No. 4, Jayapura",-2.536294,140.698618
Bank Sampah Sofifi Lestari,Bank Sampah,"Jl. Gagak Permai No. 80, Sofifi",0.766993,127.585743
Gerakan Kenanga Go Green,Komunitas / Edukasi,"Gg. Dewi Sartika Asri No. 147, Tangerang",-6.217132,106.658325
Pusat Daur Ulang Palembang Bersama,Bank Sampah,"Gg. Merdeka Baru No. 74, Palembang",-2.931516,104.783311
Komunitas Denpasar Cinta Bumi,Komunitas / Edukasi,"Komp. Imam Bonjol Indah No. 198, Denpasar",-8.685185,115.229033
Komunitas Kenanga Peduli Lingkungan,Komunitas / Edukasi,"Gg. Sudirman Permai No. 116, Mamuju",-2.668885,118.902214
Bank Sampah Tangerang Bersama,Bank Sampah,"Komp. Sisingamangaraja Lestari No. 52, Tangerang",-6.195419,106.58574
Toko Batam Second,Thrift Store / Pakaian Bekas,"Jl. Anggrek Indah No. 130, Batam",1.049998,104.055548
Pusat Daur Ulang Rajawali Hijau,Bank Sampah,"Gg. Kamboja Asri No. 114, Bandung",-6.871711,107.583494
Lingkar Bengkulu Hijau,Komunitas / Edukasi,"Perum. Kamboja Lestari No. 156, Bengkulu",-3.78128,102.210749
Pusat Daur Ulang Makassar Mandiri,Bank Sampah,"Perum. Merdeka Lestari No. 126, Makassar",-5.108392,119.392077
Kedai Diponegoro Curah,Bulk Store / Zero Waste,"Komp. Rajawali Lestari No. 129, Ternate",0.826155,127.4191
Bank Sampah Bengkulu Cinta Alam,Bank Sampah,"Perum. Gatot Subroto Lestari No. 38, Bengkulu",-3.762178,102.254617
Komunitas Patimura Lestari,Komunitas / Edukasi,"Perum. Merpati Lestari No. 125, Banda Aceh",5.50611,95.292657
Toko Flamboyan Tanpa Kemasan,Bulk Store / Zero Waste,"Gg. Elang Permai No. 120, Bekasi",-6.252166,107.002826
Toko Denpasar Cakar,Thrift Store / Pakaian Bekas,"Perum. Sudirman Asri No. 67, Denpasar",-8.706676,115.258048
Galeri Pahlawan Cakar,Thrift Store / Pakaian Bekas,"Perum. Flamboyan Permai No. 95, Gorontalo",0.558401,123.040363
Kedai Kartini Curah,Bulk Store / Zero Waste,"Perum. Sudirman Baru No. 177, Denpasar",-8.665584,115.210576
Rumah Sampah Harimau Bersama,Bank Sampah,"Perum. Mawar Lestari No. 147, Malang",-7.938739,112.598502
Warung Imam Bonjol Isi Ulang,Bulk Store / Zero Waste,"Komp. Merpati Indah No. 22, Pangkal Pinang",-2.099753,106.166593
Komunitas Makassar Peduli Lingkungan,Komunitas / Edukasi,"Jl. Merdeka Lestari No. 127, Makassar",-5.138041,119.449933
Lingkar Merdeka Lestari,Komunitas / Edukasi,"Perum. Anggrek Raya No. 162, Palu",-0.94572,119.864854
Komunitas Teuku Umar Hijau,Komunitas / Edukasi,"Perum. Flamboyan Asri No. 199, Bengkulu",-3.816842,102.232909
Pasar Medan Second,Thrift Store / Pakaian Bekas,"Perum. Kartini Permai No. 137, Medan",3.582613,98.656291
Rumah Sampah Jakarta Lestari,Bank Sampah,"Jl. Sisingamangaraja Indah No. 126, Jakarta",-6.20152,106.889988
Galeri Merpati Cakar,Thrift Store / Pakaian Bekas,"Perum. Flamboyan Raya No. 163, Tanjung Pinang",0.910633,104.413943
Pasar Malang Cakar,Thrift Store / Pakaian Bekas,"Perum. Patimura Lestari No. 180, Malang",-7.990701,112.621878
Rumah Sampah Bengkulu Mandiri,Bank Sampah,"Jl. Anggrek Baru No. 94, Bengkulu",-3.744964,102.252898
Toko Elang Vintage,Thrift Store / Pakaian Bekas,"Gg. Garuda Lama No. 123, Mamuju",-2.654828,118.839424
Toko Banjarmasin Bekas Berkelas,Thrift Store / Pakaian Bekas,"Perum. Melati Lama No. 17, Banjarmasin",-3.349929,114.56659
Gerakan Mawar Lestari,Komunitas / Edukasi,"Perum. Thamrin Raya No. 190, Mataram",-8.588697,116.09477
Komunitas Gatot Subroto Peduli Lingkungan,Komunitas / Edukasi,"Komp. Pahlawan Lestari No. 42, Makassar",-5.167035,119.405353
Warung Makassar Curah,Bulk Store / Zero Waste,"Komp. Sisingamangaraja Permai No. 19, Makassar",-5.098771,119.424619
Pusat Makassar Nir-Sampah,Bulk Store / Zero Waste,"Gg. Anggrek Lestari No. 8, Makassar",-5.121081,119.476348
Toko Banjarmasin Isi Ulang,Bulk Store / Zero Waste,"Perum. Sudirman Asri No. 20, Banjarmasin",-3.340299,114.594203
Butik Sudirman Monza,Thrift Store / Pakaian Bekas,"Gg. Patimura Permai No. 115, Manokwari",-0.852927,134.003579
Sahabat Gatot Subroto Hijau,Komunitas / Edukasi,"Perum. Imam Bonjol Permai No. 39, Pekanbaru",0.557054,101.471999
Kedai Sisingamangaraja Tanpa Kemasan,Bulk Store / Zero Waste,"Gg. Teuku Umar Asri No. 131, Kendari",-3.972435,122.486569
Warung Sudirman Tanpa Kemasan,Bulk Store / Zero Waste,"Komp. Kenanga Asri No. 46, Pontianak",-0.039854,109.301518
Pusat Banda Aceh Curah,Bulk Store / Zero Waste,"Gg. Gatot Subroto Lestari No. 142, Banda Aceh",5.588422,95.323151
Pusat Daur Ulang Kenanga Berkah,Bank Sampah,"Perum. Melati Lama No. 93, Pangkal Pinang",-2.127539,106.108883
Sahabat Sofifi Go Green,Komunitas / Edukasi,"Gg. Gagak Baru No. 147, Sofifi",0.760646,127.612901
Pusat Daur Ulang Tangerang Hijau,Bank Sampah,"Jl. Melati Baru No. 143, Tangerang",-6.188738,106.674472
Pusat Daur Ulang Gorontalo Hijau,Bank Sampah,"Jl. Dewi Sartika Raya No. 28, Gorontalo",0.496365,123.104391
Butik Diponegoro Second,Thrift Store / Pakaian Bekas,"Jl. Sudirman Baru No. 10, Padang",-0.993028,100.378801
Pusat Daur Ulang Sisingamangaraja Sejahtera,Bank Sampah,"Komp. Harimau Permai No. 173, Manado",1.454611,124.822996
Pusat Daur Ulang Manokwari Cinta Alam,Bank Sampah,"Perum. Harimau Asri No. 19, Manokwari",-0.909172,134.029849
Pusat Daur Ulang Gatot Subroto Hijau,Bank Sampah,"Perum. Diponegoro Lama No. 9, Manado",1.429737,124.86854
Pusat Daur Ulang Padang Mandiri,Bank Sampah,"Jl. Dewi Sartika Lama No. 22, Padang",-0.9039,100.372843
Lingkar Kancil Hijau,Komunitas / Edukasi,"Komp. Mawar Indah No. 57, Jambi",-1.604766,103.624981
Lingkar Sisingamangaraja Hijau,Komunitas / Edukasi,"Perum. Flamboyan Raya No. 57, Banda Aceh",5.536132,95.289931
Pusat Sisingamangaraja Tanpa Kemasan,Bulk Store / Zero Waste,"Perum. Gagak Lestari No. 100, Yogyakarta",-7.8359,110.366806
Komunitas Sisingamangaraja Cinta Bumi,Komunitas / Edukasi,"Komp. Mawar Permai No. 116, Manokwari",-0.876503,134.017104
Pusat Daur Ulang Pangkal Pinang Mandiri,Bank Sampah,"Komp. Harimau Indah No. 103, Pangkal Pinang",-2.08433,106.146361
Galeri Jakarta Second,Thrift Store / Pakaian Bekas,"Komp. Imam Bonjol Indah No. 32, Jakarta",-6.226696,106.796844
Galeri Cendana Bekas Berkelas,Thrift Store / Pakaian Bekas,"Komp. Elang Baru No. 2, Makassar",-5.18585,119.409782
Toko Kendari Bekas Berkelas,Thrift Store / Pakaian Bekas,"Komp. Bougenville Indah No. 57, Kendari",-3.986596,122.516638
Kedai Merpati Ramah Lingkungan,Bulk Store / Zero Waste,"Gg. Mawar Lestari No. 72, Gorontalo",0.541059,123.074366
Toko Gorontalo Vintage,Thrift Store / Pakaian Bekas,"Jl. Bougenville Indah No. 140, Gorontalo",0.558296,123.085724
Rumah Sampah Cendana Berkah,Bank Sampah,"Komp. Kamboja Permai No. 74, Bengkulu",-3.754708,102.244012
Butik Thamrin Monza,Thrift Store / Pakaian Bekas,"Komp. Flamboyan Lestari No. 93, Bekasi",-6.231356,106.974466
Bank Sampah Mamuju Lestari,Bank Sampah,"Jl. Dewi Sartika Permai No. 140, Mamuju",-2.650063,118.858635
Gerakan Elang Cinta Bumi,Komunitas / Edukasi,"Gg. Mawar Baru No. 12, Bekasi",-6.237147,106.944917
Pusat Daur Ulang Palembang Cinta Alam,Bank Sampah,"Jl. Teuku Umar Lestari No. 152, Palembang",-2.998663,104.733418
Rumah Sampah Tangerang Mandiri,Bank Sampah,"Komp. Harimau Baru No. 32, Tangerang",-6.164679,106.629633
Pusat Daur Ulang Merdeka Sejahtera,Bank Sampah,"Jl. Dewi Sartika Permai No. 160, Serang",-6.133176,106.16535
Bank Sampah Dewi Sartika Berkah,Bank Sampah,"Perum. Rajawali Indah No. 93, Bekasi",-6.189346,106.956867
Butik Imam Bonjol Vintage,Thrift Store / Pakaian Bekas,"Komp. Merdeka Raya No. 136, Batam",0.99904,104.068681
Pusat Daur Ulang Malang Bersama,Bank Sampah,"Gg. Garuda Permai No. 43, Malang",-7.974439,112.612534
Pusat Melati Nir-Sampah,Bulk Store / Zero Waste,"Jl. Kamboja Indah No. 11, Sofifi",0.679603,127.537808
Warung Kancil Ramah Lingkungan,Bulk Store / Zero Waste,"Jl. Kartini Baru No. 50, Ternate",0.809663,127.343393
Pasar Depok Vintage,Thrift Store / Pakaian Bekas,"Komp. Merdeka Lestari No. 138, Depok",-6.357768,106.768496
Pusat Daur Ulang Kamboja Cinta Alam,Bank Sampah,"Perum. Cut Nyak Dien Indah No. 120, Jayapura",-2.50411,140.738774
Sahabat Pekanbaru Go Green,Komunitas / Edukasi,"Perum. Sisingamangaraja Indah No. 185, Pekanbaru",0.492268,101.419067
Pusat Denpasar Isi Ulang,Bulk Store / Zero Waste,"Komp. Bougenville Permai No. 13, Denpasar",-8.633547,115.224717
Lingkar Teuku Umar Go Green,Komunitas / Edukasi,"Gg. Dewi Sartika Indah No. 133, Bengkulu",-3.774519,102.228292
Bank Sampah Malang Sejahtera,Bank Sampah,"Komp. Diponegoro Lestari No. 141, Malang",-7.977462,112.603719
Kedai Gagak Curah,Bulk Store / Zero Waste,"Gg. Cut Nyak Dien Asri No. 134, Kendari",-4.015289,122.510269
Pusat Daur Ulang Serang Berkah,Bank Sampah,"Komp. Merpati Lama No. 174, Serang",-6.151186,106.193758
Toko Cut Nyak Dien Bekas Berkelas,Thrift Store / Pakaian Bekas,"Jl. Kartini Lestari No. 149, Jambi",-1.595058,103.571373
Pusat Rajawali Ramah Lingkungan,Bulk Store / Zero Waste,"Gg. Elang Asri No. 45, Manokwari",-0.837391,134.063496
Galeri Mamuju Monza,Thrift Store / Pakaian Bekas,"Jl. Cut Nyak Dien Raya No. 159, Mamuju",-2.675235,118.913116
Komunitas Bengkulu Hijau,Komunitas / Edukasi,"Jl. Kenanga Indah No. 43, Bengkulu",-3.756436,102.269101
Lingkar Ambon Hijau,Komunitas / Edukasi,"Perum. Cut Nyak Dien Indah No. 90, Ambon",-3.681719,128.206829
Pusat Gatot Subroto Ramah Lingkungan,Bulk Store / Zero Waste,"Jl. Flamboyan Indah No. 193, Banda Aceh",5.597446,95.292748
Bank Sampah Serang Hijau,Bank Sampah,"Perum. Garuda Asri No. 122, Serang",-6.16625,106.103494
Pasar Surabaya Bekas Berkelas,Thrift Store / Pakaian Bekas,"Jl. Rajawali Raya No. 163, Surabaya",-7.215123,112.773421
Bank Sampah Merpati Lestari,Bank Sampah,"Jl. Harimau Indah No. 144, Gorontalo",0.582629,123.0485
Gerakan Palu Go Green,Komunitas / Edukasi,"Komp. Merdeka Permai No. 109, Palu",-0.889369,119.897393
Warung Bandar Lampung Curah,Bulk Store / Zero Waste,"Gg. Pahlawan Lama No. 177, Bandar Lampung",-5.468415,105.30029
Toko Bandung Second,Thrift Store / Pakaian Bekas,"Perum. Mawar Indah No. 198, Bandung",-6.967163,107.596108
Toko Dewi Sartika Cakar,Thrift Store / Pakaian Bekas,"Komp. Melati Lama No. 69, Palu",-0.922877,119.915626
Gerakan Cendrawasih Go Green,Komunitas / Edukasi,"Jl. Imam Bonjol Lestari No. 63, Pangkal Pinang",-2.105671,106.13657
Toko Harimau Vintage,Thrift Store / Pakaian Bekas,"Jl. Sisingamangaraja Indah No. 153, Bandar Lampung",-5.449928,105.302535
Rumah Sampah Rajawali Sejahtera,Bank Sampah,"Jl. Flamboyan Asri No. 134, Samarinda",-0.547568,117.136937
Rumah Sampah Padang Mandiri,Bank Sampah,"Gg. Bougenville Lestari No. 146, Padang",-0.919236,100.31601
Butik Bandar Lampung Monza,Thrift Store / Pakaian Bekas,"Perum. Bougenville Raya No. 185, Bandar Lampung",-5.468604,105.302509
Lingkar Teuku Umar Hijau,Komunitas / Edukasi,"Perum. Teuku Umar Baru No. 192, Bandar Lampung",-5.412273,105.27258
Pasar Depok Cakar,Thrift Store / Pakaian Bekas,"Gg. Elang Baru No. 159, Depok",-6.406799,106.771376
Rumah Sampah Gatot Subroto Mandiri,Bank Sampah,"Perum. Cut Nyak Dien Baru No. 104, Manado",1.492955,124.863213
Rumah Sampah Pekanbaru Lestari,Bank Sampah,"Jl. Merpati Lama No. 107, Pekanbaru",0.460197,101.460525
Toko Balikpapan Bekas Berkelas,Thrift Store / Pakaian Bekas,"Jl. Flamboyan Raya No. 112, Balikpapan",-1.229989,116.788097
Gerakan Rajawali Go Green,Komunitas / Edukasi,"Gg. Merpati Lestari No. 121, Batam",1.044442,104.009005
Rumah Sampah Pangkal Pinang Hijau,Bank Sampah,"Gg. Pahlawan Lestari No. 125, Pangkal Pinang",-2.141754,106.071813
Sahabat Samarinda Lestari,Komunitas / Edukasi,"Komp. Kenanga Lama No. 67, Samarinda",-0.495007,117.116475
Kedai Kancil Curah,Bulk Store / Zero Waste,"Komp. Bougenville Raya No. 107, Jambi",-1.590506,103.603853
Gerakan Surabaya Peduli Lingkungan,Komunitas / Edukasi,"Perum. Imam Bonjol Indah No. 63, Surabaya",-7.241333,112.759863
Pusat Bekasi Curah,Bulk Store / Zero Waste,"Gg. Patimura Indah No. 126, Bekasi",-6.227721,106.987221
Pusat Daur Ulang Ternate Bersama,Bank Sampah,"Gg. Anggrek Indah No. 27, Ternate",0.806806,127.33053
Komunitas Thamrin Lestari,Komunitas / Edukasi,"Gg. Sisingamangaraja Lestari No. 2, Semarang",-6.960324,110.472581
Bank Sampah Sofifi Bersama,Bank Sampah,"Komp. Dewi Sartika Indah No. 100, Sofifi",0.714591,127.523388
Kedai Merpati Curah,Bulk Store / Zero Waste,"Komp. Bougenville Asri No. 24, Tanjung Pinang",0.92301,104.471917
Sahabat Batam Hijau,Komunitas / Edukasi,"Komp. Garuda Permai No. 38, Batam",1.030309,104.042493
Pusat Daur Ulang Malang Cinta Alam,Bank Sampah,"Komp. Imam Bonjol Permai No. 172, Malang",-7.969839,112.629223
Bank Sampah Padang Bersama,Bank Sampah,"Gg. Diponegoro Asri No. 118, Padang",-0.920213,100.375188
Warung Tangerang Isi Ulang,Bulk Store / Zero Waste,"Komp. Cendana Lama No. 121, Tangerang",-6.194459,106.658822
Warung Jambi Ramah Lingkungan,Bulk Store / Zero Waste,"Gg. Teuku Umar Asri No. 140, Jambi",-1.597089,103.569545
Sahabat Balikpapan Cinta Bumi,Komunitas / Edukasi,"Jl. Dewi Sartika Asri No. 23, Balikpapan",-1.305196,116.781905
Butik Semarang Vintage,Thrift Store / Pakaian Bekas,"Gg. Merpati Lama No. 77, Semarang",-6.953015,110.450869
Pasar Kancil Monza,Thrift Store / Pakaian Bekas,"Perum. Thamrin Lama No. 64, Surabaya",-7.272684,112.724142
Warung Pahlawan Isi Ulang,Bulk Store / Zero Waste,"Jl. Garuda Lestari No. 151, Bengkulu",-3.769002,102.277591
Pusat Daur Ulang Medan Hijau,Bank Sampah,"Gg. Gagak Lestari No. 143, Medan",3.632001,98.650577
Pusat Daur Ulang Padang Sejahtera,Bank Sampah,"Komp. Harimau Permai No. 169, Padang",-0.98058,100.337573
Toko Padang Vintage,Thrift Store / Pakaian Bekas,"Jl. Sisingamangaraja Asri No. 14, Padang",-0.979256,100.380615
Rumah Sampah Rajawali Mandiri,Bank Sampah,"Gg. Gatot Subroto Lestari No. 97, Tangerang",-6.208546,106.588182
Pasar Sudirman Second,Thrift Store / Pakaian Bekas,"Perum. Merpati Lestari No. 175, Ternate",0.793102,127.421238
Pusat Daur Ulang Balikpapan Berkah,Bank Sampah,"Perum. Cendana Baru No. 168, Balikpapan",-1.234545,116.82094
Bank Sampah Gatot Subroto Berkah,Bank Sampah,"Perum. Cendrawasih Permai No. 93, Palu",-0.9131,119.899988
Kedai Melati Isi Ulang,Bulk Store / Zero Waste,"Jl. Flamboyan Lama No. 146, Jakarta",-6.231693,106.83861
Toko Manokwari Vintage,Thrift Store / Pakaian Bekas,"Jl. Merdeka Raya No. 28, Manokwari",-0.908432,134.086985
Komunitas Imam Bonjol Cinta Bumi,Komunitas / Edukasi,"Gg. Patimura Lama No. 53, Bandung",-6.953407,107.634241
Komunitas Gatot Subroto Lestari,Komunitas / Edukasi,"Gg. Teuku Umar Indah No. 46, Kupang",-10.209869,123.544602
Toko Imam Bonjol Ramah Lingkungan,Bulk Store / Zero Waste,"Perum. Imam Bonjol Baru No. 167, Banjarmasin",-3.330564,114.559619
Toko Bengkulu Isi Ulang,Bulk Store / Zero Waste,"Gg. Harimau Permai No. 121, Bengkulu",-3.811947,102.226211
Pusat Daur Ulang Sudirman Cinta Alam,Bank Sampah,"Perum. Imam Bonjol Raya No. 74, Mataram",-8.565875,116.166332
Pusat Patimura Curah,Bulk Store / Zero Waste,"Jl. Thamrin Lama No. 177, Ternate",0.760708,127.377447
Butik Manokwari Bekas Berkelas,Thrift Store / Pakaian Bekas,"Jl. Merpati Indah No. 69, Manokwari",-0.894992,134.038923
Bank Sampah Samarinda Berkah,Bank Sampah,"Komp. Mawar Raya No. 101, Samarinda",-0.504844,117.150385
Rumah Sampah Patimura Sejahtera,Bank Sampah,"Gg. Sudirman Raya No. 113, Depok",-6.419523,106.783721
Rumah Sampah Mamuju Bersama,Bank Sampah,"Perum. Cendana Baru No. 178, Mamuju",-2.675828,118.932208
Komunitas Sudirman Cinta Bumi,Komunitas / Edukasi,"Jl. Dewi Sartika Permai No. 186, Samarinda",-0.531543,117.132175
Lingkar Cut Nyak Dien Cinta Bumi,Komunitas / Edukasi,"Perum. Merpati Lestari No. 54, Malang",-7.922021,112.590015
Warung Elang Ramah Lingkungan,Bulk Store / Zero Waste,"Jl. Rajawali Lama No. 62, Ternate",0.777467,127.403615
Pusat Daur Ulang Jakarta Hijau,Bank Sampah,"Perum. Imam Bonjol Asri No. 44, Jakarta",-6.217582,106.799767
Bank Sampah Mawar Cinta Alam,Bank Sampah,"Perum. Kamboja Raya No. 81, Depok",-6.395432,106.760583
Rumah Sampah Makassar Mandiri,Bank Sampah,"Perum. Sisingamangaraja Raya No. 89, Makassar",-5.107465,119.444673
Butik Balikpapan Vintage,Thrift Store / Pakaian Bekas,"Komp. Thamrin Indah No. 6, Balikpapan",-1.292815,116.844467
Sahabat Surabaya Cinta Bumi,Komunitas / Edukasi,"Komp. Anggrek Asri No. 40, Surabaya",-7.267792,112.743429
Pusat Daur Ulang Melati Cinta Alam,Bank Sampah,"Perum. Elang Lestari No. 143, Samarinda",-0.472001,117.139768
Pusat Daur Ulang Sisingamangaraja Berkah,Bank Sampah,"Perum. Imam Bonjol Raya No. 31, Padang",-0.920808,100.322737
Pusat Daur Ulang Mawar Lestari,Bank Sampah,"Gg. Mawar Asri No. 144, Pontianak",-0.033293,109.335313
Kedai Serang Curah,Bulk Store / Zero Waste,"Komp. Kancil Lestari No. 49, Serang",-6.072293,106.147587
Bank Sampah Anggrek Hijau,Bank Sampah,"Perum. Thamrin Asri No. 64, Bekasi",-6.232046,106.96405
Galeri Thamrin Vintage,Thrift Store / Pakaian Bekas,"Jl. Rajawali Permai No. 156, Palu",-0.884477,119.870383
Toko Kenanga Tanpa Kemasan,Bulk Store / Zero Waste,"Gg. Flamboyan Asri No. 37, Surabaya",-7.286982,112.757428
Bank Sampah Yogyakarta Bersama,Bank Sampah,"Jl. Cendrawasih Raya No. 165, Yogyakarta",-7.84399,110.32132
Bank Sampah Palembang Sejahtera,Bank Sampah,"Jl. Teuku Umar Baru No. 39, Palembang",-3.023718,104.794775
Komunitas Cut Nyak Dien Cinta Bumi,Komunitas / Edukasi,"Gg. Teuku Umar Permai No. 101, Serang",-6.156412,106.181149
Toko Ternate Vintage,Thrift Store / Pakaian Bekas,"Perum. Sudirman Asri No. 98, Ternate",0.820459,127.376624
Bank Sampah Rajawali Mandiri,Bank Sampah,"Jl. Imam Bonjol Permai No. 95, Serang",-6.101647,106.174683
Rumah Sampah Flamboyan Berkah,Bank Sampah,"Jl. Flamboyan Indah No. 68, Kupang",-10.213817,123.631536
Pasar Jayapura Cakar,Thrift Store / Pakaian Bekas,"Gg. Mawar Raya No. 127, Jayapura",-2.501361,140.680496
Kedai Cendrawasih Curah,Bulk Store / Zero Waste,"Gg. Cendrawasih Baru No. 98, Pontianak",-0.073036,109.388847
Bank Sampah Makassar Hijau,Bank Sampah,"Jl. Imam Bonjol Asri No. 144, Makassar",-5.136041,119.465982
Galeri Merdeka Vintage,Thrift Store / Pakaian Bekas,"Jl. Cut Nyak Dien Baru No. 144, Batam",1.027106,104.035495
Lingkar Sudirman Cinta Bumi,Komunitas / Edukasi,"Komp. Bougenville Indah No. 181, Kendari",-4.010949,122.563298
Sahabat Ambon Go Green,Komunitas / Edukasi,"Perum. Harimau Asri No. 81, Ambon",-3.6976,128.162022
Pusat Serang Ramah Lingkungan,Bulk Store / Zero Waste,"Komp. Gagak Lestari No. 107, Serang",-6.070802,106.193251
